FLOCK 4G-6              
1 62660U 25009BD  26068.71061311  .00012261  00000+0  45910-3 0  9991
2 62660  97.3980 150.7943 0002380 348.2637  11.8546 15.27432125121307
STARLINK-36511          
1 67451U 26008G   26068.39687263  .00028197  00000+0  10298-2 0  9993
2 67451  43.0004 207.2129 0003175 282.3495  77.7001 15.27593687  9529
